FENGYUN 1C DEB          
1 37717U 99025EMJ 17345.61459689  .00000889  00000-0  23836-3 0  9998
2 37717  98.7466 115.4514 0125692   4.6420  50.4450 14.46282149468949
